KUIPER-00272            
1 68588U 26072R   26199.05480700  .00000242  00000+0  60762-4 0  9995
2 68588  51.9001  56.6384 0001017 129.3555 230.7498 14.79932757 15726
KUIPER-00285            
1 68589U 26072S   26199.27905813  .00019217  00000+0  25457-2 0  9999
2 68589  51.9049  35.7267 0001867 102.9400 257.1771 14.79881323 16030
KUIPER-00286            
1 68590U 26072T   26199.25002315 -.00096727  00000+0 -13940-1 0  9990
2 68590  51.9647  32.9369 0002666 151.3824 226.9983 14.76464339  5245
KUIPER-00289            
1 68591U 26072U   26199.00345367  .00000583  00000+0  10542-3 0  9991
2 68591  51.9000  41.8838 0000790 128.9354 231.1679 14.79931697 15928
KUIPER-00290            
1 68592U 26072V   26198.96558960 -.00003402  00000+0 -45449-3 0  9990
2 68592  51.9044  40.6063 0001036 130.8686 229.2365 14.76420424 15948
KUIPER-00293            
1 68593U 26072W   26198.99266191  .00001650  00000+0  24549-3 0  9995
2 68593  51.8991  51.9156 0002793 137.3294 222.7886 14.79931186 15788
KUIPER-00294            
1 68594U 26072X   26199.25002315 -.00029457  00000+0 -38514-2 0  9995
2 68594  51.8992  38.2911 0001755  53.7506 166.6031 14.79937095  4771
KUIPER-00296            
1 68595U 26072Y   26199.14465661 -.00340762  00000+0 -98240-2 0  9998
2 68595  51.8708  27.1289 0008903 131.2710 228.9045 15.36489297 16144
KUIPER-00297            
1 68596U 26072Z   26199.28201867  .00000847  00000+0  15148-3 0  9992
2 68596  51.9008  50.4755 0001111 139.7374 220.3670 14.76359560 15836
KUIPER-00300            
1 68597U 26072AA  26199.27364320  .00000976  00000+0  16951-3 0  9992
2 68597  51.9038  47.5686 0001764 139.9930 220.1161 14.76476346 15873
KUIPER-00301            
1 68598U 26072AB  26198.94302450  .00015660  00000+0  41065-3 0  9992
2 68598  51.8653  27.9789 0009689 135.1187 225.0585 15.38801138 16110
KUIPER-00304            
1 68599U 26072AC  26199.25002315 -.01939468  00000+0 -59342-1 0  9994
2 68599  51.8682  26.6835 0010924 135.5447  36.7015 15.36729362  2563
KUIPER-00317            
1 68600U 26072AD  26197.95943313 -.00001562  00000+0 -17590-3 0  9999
2 68600  51.8997  44.0110 0000720  78.0290 282.0753 14.79930386 15807
KUIPER-00320            
1 68601U 26072AE  26198.96698455  .00001573  00000+0  23524-3 0  9990
2 68601  51.9034  44.5464 0000744 112.5165 247.5876 14.79932365 15888
KUIPER-00299            
1 68864U 26095A   26199.06516893  .00000857  00000+0  15260-3 0  9995
2 68864  51.9000 112.7515 0001360 286.2198  73.8613 14.76473840 12204
KUIPER-00353            
1 68865U 26095B   26199.25002315 -.00037276  00000+0 -48754-2 0  9996
2 68865  51.8989  98.3013 0001342 136.7599 247.9963 14.80037618  5800
