{"fetched_at":"2026-07-18T17:29:29.751Z","source":"https://celestrak.org/NORAD/elements/gp.php?GROUP=kuiper&FORMAT=JSON","constellation":"kuiper","records":[{"OBJECT_NAME":"KUIPER-00272","OBJECT_ID":"2026-072R","EPOCH":"2026-07-18T01:18:55.324800","CLASSIFICATION_TYPE":"U","MEAN_MOTION":14.79932757,"ECCENTRICITY":0.0001017,"INCLINATION":51.9001,"RA_OF_ASC_NODE":56.6384,"ARG_OF_PERICENTER":129.3555,"MEAN_ANOMALY":230.7498,"EPHEMERIS_TYPE":0,"NORAD_CAT_ID":68588,"ELEMENT_SET_NO":999,"REV_AT_EPOCH":1572,"BSTAR":0.000060762344,"MEAN_MOTION_DOT":0.00000242,"MEAN_MOTION_DDOT":0},{"OBJECT_NAME":"KUIPER-00285","OBJECT_ID":"2026-072S","EPOCH":"2026-07-18T06:41:50.622432","CLASSIFICATION_TYPE":"U","MEAN_MOTION":14.79881323,"ECCENTRICITY":0.00018671,"INCLINATION":51.9049,"RA_OF_ASC_NODE":35.7267,"ARG_OF_PERICENTER":102.94,"MEAN_ANOMALY":257.1771,"EPHEMERIS_TYPE":0,"NORAD_CAT_ID":68589,"ELEMENT_SET_NO":999,"REV_AT_EPOCH":1603,"BSTAR":0.0025457341,"MEAN_MOTION_DOT":0.00019217,"MEAN_MOTION_DDOT":0},{"OBJECT_NAME":"KUIPER-00286","OBJECT_ID":"2026-072T","EPOCH":"2026-07-18T06:00:02.000160","CLASSIFICATION_TYPE":"U","MEAN_MOTION":14.76464339,"ECCENTRICITY":0.00026664,"INCLINATION":51.9647,"RA_OF_ASC_NODE":32.9369,"ARG_OF_PERICENTER":151.3824,"MEAN_ANOMALY":226.9983,"EPHEMERIS_TYPE":0,"NORAD_CAT_ID":68590,"ELEMENT_SET_NO":999,"REV_AT_EPOCH":524,"BSTAR":-0.013940299,"MEAN_MOTION_DOT":-0.00096727,"MEAN_MOTION_DDOT":0},{"OBJECT_NAME":"KUIPER-00289","OBJECT_ID":"2026-072U","EPOCH":"2026-07-18T00:04:58.397088","CLASSIFICATION_TYPE":"U","MEAN_MOTION":14.79931697,"ECCENTRICITY":0.00007903,"INCLINATION":51.9,"RA_OF_ASC_NODE":41.8838,"ARG_OF_PERICENTER":128.9354,"MEAN_ANOMALY":231.1679,"EPHEMERIS_TYPE":0,"NORAD_CAT_ID":68591,"ELEMENT_SET_NO":999,"REV_AT_EPOCH":1592,"BSTAR":0.00010541547,"MEAN_MOTION_DOT":0.00000583,"MEAN_MOTION_DDOT":0},{"OBJECT_NAME":"KUIPER-00290","OBJECT_ID":"2026-072V","EPOCH":"2026-07-17T23:10:26.941440","CLASSIFICATION_TYPE":"U","MEAN_MOTION":14.76420424,"ECCENTRICITY":0.00010366,"INCLINATION":51.9044,"RA_OF_ASC_NODE":40.6063,"ARG_OF_PERICENTER":130.8686,"MEAN_ANOMALY":229.2365,"EPHEMERIS_TYPE":0,"NORAD_CAT_ID":68592,"ELEMENT_SET_NO":999,"REV_AT_EPOCH":1594,"BSTAR":-0.00045449359,"MEAN_MOTION_DOT":-0.00003402,"MEAN_MOTION_DDOT":0},{"OBJECT_NAME":"KUIPER-00293","OBJECT_ID":"2026-072W","EPOCH":"2026-07-17T23:49:25.989024","CLASSIFICATION_TYPE":"U","MEAN_MOTION":14.79931186,"ECCENTRICITY":0.00027931,"INCLINATION":51.8991,"RA_OF_ASC_NODE":51.9156,"ARG_OF_PERICENTER":137.3294,"MEAN_ANOMALY":222.7886,"EPHEMERIS_TYPE":0,"NORAD_CAT_ID":68593,"ELEMENT_SET_NO":999,"REV_AT_EPOCH":1578,"BSTAR":0.00024549455,"MEAN_MOTION_DOT":0.0000165,"MEAN_MOTION_DDOT":0},{"OBJECT_NAME":"KUIPER-00294","OBJECT_ID":"2026-072X","EPOCH":"2026-07-18T06:00:02.000160","CLASSIFICATION_TYPE":"U","MEAN_MOTION":14.79937095,"ECCENTRICITY":0.0001755,"INCLINATION":51.8992,"RA_OF_ASC_NODE":38.2911,"ARG_OF_PERICENTER":53.7506,"MEAN_ANOMALY":166.6031,"EPHEMERIS_TYPE":0,"NORAD_CAT_ID":68594,"ELEMENT_SET_NO":999,"REV_AT_EPOCH":477,"BSTAR":-0.0038513765,"MEAN_MOTION_DOT":-0.00029457,"MEAN_MOTION_DDOT":0},{"OBJECT_NAME":"KUIPER-00296","OBJECT_ID":"2026-072Y","EPOCH":"2026-07-18T03:28:18.331104","CLASSIFICATION_TYPE":"U","MEAN_MOTION":15.36489297,"ECCENTRICITY":0.00089038,"INCLINATION":51.8708,"RA_OF_ASC_NODE":27.1289,"ARG_OF_PERICENTER":131.271,"MEAN_ANOMALY":228.9045,"EPHEMERIS_TYPE":0,"NORAD_CAT_ID":68595,"ELEMENT_SET_NO":999,"REV_AT_EPOCH":1614,"BSTAR":-0.0098240304,"MEAN_MOTION_DOT":-0.00340762,"MEAN_MOTION_DDOT":0},{"OBJECT_NAME":"KUIPER-00297","OBJECT_ID":"2026-072Z","EPOCH":"2026-07-18T06:46:06.413088","CLASSIFICATION_TYPE":"U","MEAN_MOTION":14.7635956,"ECCENTRICITY":0.00011119,"INCLINATION":51.9008,"RA_OF_ASC_NODE":50.4755,"ARG_OF_PERICENTER":139.7374,"MEAN_ANOMALY":220.367,"EPHEMERIS_TYPE":0,"NORAD_CAT_ID":68596,"ELEMENT_SET_NO":999,"REV_AT_EPOCH":1583,"BSTAR":0.00015147742,"MEAN_MOTION_DOT":0.00000847,"MEAN_MOTION_DDOT":0},{"OBJECT_NAME":"KUIPER-00300","OBJECT_ID":"2026-072AA","EPOCH":"2026-07-18T06:34:02.772480","CLASSIFICATION_TYPE":"U","MEAN_MOTION":14.76476346,"ECCENTRICITY":0.00017644,"INCLINATION":51.9038,"RA_OF_ASC_NODE":47.5686,"ARG_OF_PERICENTER":139.993,"MEAN_ANOMALY":220.1161,"EPHEMERIS_TYPE":0,"NORAD_CAT_ID":68597,"ELEMENT_SET_NO":999,"REV_AT_EPOCH":1587,"BSTAR":0.00016951088,"MEAN_MOTION_DOT":0.00000976,"MEAN_MOTION_DDOT":0},{"OBJECT_NAME":"KUIPER-00301","OBJECT_ID":"2026-072AB","EPOCH":"2026-07-17T22:37:57.316800","CLASSIFICATION_TYPE":"U","MEAN_MOTION":15.38801138,"ECCENTRICITY":0.00096891,"INCLINATION":51.8653,"RA_OF_ASC_NODE":27.9789,"ARG_OF_PERICENTER":135.1187,"MEAN_ANOMALY":225.0585,"EPHEMERIS_TYPE":0,"NORAD_CAT_ID":68598,"ELEMENT_SET_NO":999,"REV_AT_EPOCH":1611,"BSTAR":0.00041064795,"MEAN_MOTION_DOT":0.0001566,"MEAN_MOTION_DDOT":0},{"OBJECT_NAME":"KUIPER-00304","OBJECT_ID":"2026-072AC","EPOCH":"2026-07-18T06:00:02.000160","CLASSIFICATION_TYPE":"U","MEAN_MOTION":15.36729362,"ECCENTRICITY":0.00109245,"INCLINATION":51.8682,"RA_OF_ASC_NODE":26.6835,"ARG_OF_PERICENTER":135.5447,"MEAN_ANOMALY":36.7015,"EPHEMERIS_TYPE":0,"NORAD_CAT_ID":68599,"ELEMENT_SET_NO":999,"REV_AT_EPOCH":256,"BSTAR":-0.059342013,"MEAN_MOTION_DOT":-0.01939468,"MEAN_MOTION_DDOT":0},{"OBJECT_NAME":"KUIPER-00317","OBJECT_ID":"2026-072AD","EPOCH":"2026-07-16T23:01:35.022432","CLASSIFICATION_TYPE":"U","MEAN_MOTION":14.79930386,"ECCENTRICITY":0.000072,"INCLINATION":51.8997,"RA_OF_ASC_NODE":44.011,"ARG_OF_PERICENTER":78.029,"MEAN_ANOMALY":282.0753,"EPHEMERIS_TYPE":0,"NORAD_CAT_ID":68600,"ELEMENT_SET_NO":999,"REV_AT_EPOCH":1580,"BSTAR":-0.00017589532,"MEAN_MOTION_DOT":-0.00001562,"MEAN_MOTION_DDOT":0},{"OBJECT_NAME":"KUIPER-00320","OBJECT_ID":"2026-072AE","EPOCH":"2026-07-17T23:12:27.465120","CLASSIFICATION_TYPE":"U","MEAN_MOTION":14.79932365,"ECCENTRICITY":0.00007445,"INCLINATION":51.9034,"RA_OF_ASC_NODE":44.5464,"ARG_OF_PERICENTER":112.5165,"MEAN_ANOMALY":247.5876,"EPHEMERIS_TYPE":0,"NORAD_CAT_ID":68601,"ELEMENT_SET_NO":999,"REV_AT_EPOCH":1588,"BSTAR":0.0002352414,"MEAN_MOTION_DOT":0.00001573,"MEAN_MOTION_DDOT":0},{"OBJECT_NAME":"KUIPER-00299","OBJECT_ID":"2026-095A","EPOCH":"2026-07-18T01:33:50.595552","CLASSIFICATION_TYPE":"U","MEAN_MOTION":14.7647384,"ECCENTRICITY":0.00013601,"INCLINATION":51.9,"RA_OF_ASC_NODE":112.7515,"ARG_OF_PERICENTER":286.2198,"MEAN_ANOMALY":73.8613,"EPHEMERIS_TYPE":0,"NORAD_CAT_ID":68864,"ELEMENT_SET_NO":999,"REV_AT_EPOCH":1220,"BSTAR":0.00015259749,"MEAN_MOTION_DOT":0.00000857,"MEAN_MOTION_DDOT":0},{"OBJECT_NAME":"KUIPER-00353","OBJECT_ID":"2026-095B","EPOCH":"2026-07-18T06:00:02.000160","CLASSIFICATION_TYPE":"U","MEAN_MOTION":14.80037618,"ECCENTRICITY":0.0001342,"INCLINATION":51.8989,"RA_OF_ASC_NODE":98.3013,"ARG_OF_PERICENTER":136.7599,"MEAN_ANOMALY":247.9963,"EPHEMERIS_TYPE":0,"NORAD_CAT_ID":68865,"ELEMENT_SET_NO":999,"REV_AT_EPOCH":580,"BSTAR":-0.0048754325,"MEAN_MOTION_DOT":-0.00037276,"MEAN_MOTION_DDOT":0}]}
